USA 176 (DSP 22)        
1 28158U 04004A   24106.33004395 -.00000223  00000+0  00000+0 0  9998
2 28158  10.9797  31.4107 0000878 281.8982  96.5979  1.00266893 24989
ABS-4 (MOBISAT-1)       
1 28184U 04007A   24106.61117667  .00000032  00000+0  00000+0 0  9995
2 28184   4.0227  81.5311 0005294 305.2206  98.4726  1.00270961 44399
EUTELSAT 7A             
1 28187U 04008A   24106.53243977  .00000095  00000+0  00000+0 0  9993
2 28187   3.8081  81.2920 0002767 305.2944 230.0631  1.00272882 73408
AMC-11 (GE-11)          
1 28252U 04017A   24106.57697678 -.00000060  00000+0  00000+0 0  9994
2 28252   0.0501  57.7692 0001709 286.1022 316.9525  1.00272313 72921
INTELSAT 10-02          
1 28358U 04022A   24106.31255241 -.00000021  00000+0  00000+0 0  9992
2 28358   0.0148 195.2810 0000794 173.3889 306.8206  1.00270988 72601
ANIK F2                 
1 28378U 04027A   24106.57697678 -.00000059  00000+0  00000+0 0  9992
2 28378   1.2319  89.3847 0002516 316.2035 255.2338  1.00272007 33316
AMC-15                  
1 28446U 04041A   24106.01855084 -.00000099  00000+0  00000+0 0  9994
2 28446   0.0519  60.1367 0002544 307.0264  98.1289  1.00268845 71369
NSS-10 (AMC-12)         
1 28526U 05003A   24106.37686211 -.00000259  00000+0  00000+0 0  9993
2 28526   4.4579  79.8930 0003066 302.6852 279.6571  1.00272233 45209
XTAR-EUR                
1 28542U 05005A   24106.59310280  .00000142  00000+0  00000+0 0  9997
2 28542   2.2885  86.5324 0003468 273.4738  86.7220  1.00271963 70248
XM-3 (RHYTHM)           
1 28626U 05008A   24106.36103230 -.00000215  00000+0  00000+0 0  9995
2 28626   0.0180 228.2224 0000512  27.2981 353.3471  1.00269277 34674
INMARSAT 4-F1           
1 28628U 05009A   24106.13337288  .00000024  00000+0  00000+0 0  9992
2 28628   4.2140  40.6950 0002251   0.9426  28.2356  1.00272053 69724
DIRECTV 8               
1 28659U 05019A   24106.57541037 -.00000009  00000+0  00000+0 0  9998
2 28659   0.0144 188.8770 0002806 200.8890 262.5424  1.00272028 69128
GALAXY 28 (G-28)        
1 28702U 05022A   24106.58141493 -.00000195  00000+0  00000+0 0  9990
2 28702   1.2481  88.5950 0002713 221.2499  14.6913  1.00271521 44038
THAICOM 4               
1 28786U 05028A   24105.99841084 -.00000373  00000+0  00000+0 0  9993
2 28786   0.0177 224.2569 0002126 150.0756 308.2454  1.00272325 44290
GALAXY 14 (G-14)        
1 28790U 05030A   24106.54493890  .00000146  00000+0  00000+0 0  9998
2 28790   2.9705  84.5367 0001484 288.7979  59.9132  1.00273962 68352
ANIK F1R                
1 28868U 05036A   24106.57775998 -.00000083  00000+0  00000+0 0  9996
2 28868   2.2715  86.3430 0003085 317.1015 261.4672  1.00272493 38501
SYRACUSE 3A             
1 28885U 05041B   24106.60830491  .00000123  00000+0  00000+0 0  9999
2 28885   2.6137  85.6122 0002950 293.9900  89.8298  1.00270971 67806
INMARSAT 4-F2           
1 28899U 05044A   24105.76855084 -.00000269  00000+0  00000+0 0  9990
2 28899   4.1255  42.1609 0002149 351.8063 229.6202  1.00271663 67562
SPACEWAY 2              
1 28903U 05046B   24106.53243977  .00000094  00000+0  00000+0 0  9991
2 28903   3.4590  80.9667 0000295 170.5171   5.4786  1.00271281 43390
METEOSAT-9 (MSG-2)      
1 28912U 05049B   24106.53653905  .00000119  00000+0  00000+0 0  9998
2 28912   7.5453  61.3768 0001604 314.7509  66.9024  1.00274393 67109
EUTELSAT 174A           
1 28924U 05052A   24106.49632740  .00000000  00000+0  00000+0 0  9993
2 28924   2.2011  86.1871 0006224 296.5109 174.1104  1.00271756 44386
ECHOSTAR 10             
1 28935U 06003A   24106.29079675 -.00000066  00000+0  00000+0 0  9995
2 28935   0.0471  64.2412 0001538 282.5575 211.5944  1.00272029 66529
SPAINSAT                
1 28945U 06007A   24105.51888522 -.00000226  00000+0  00000+0 0  9991
2 28945   0.0169 221.6784 0002365 139.5053 358.8060  1.00272983 66260
EUTELSAT HOTBIRD 13E    
1 28946U 06007B   24106.53001236  .00000076  00000+0  00000+0 0  9996
2 28946   0.0840 147.4669 0004351 240.4340  19.8478  1.00274015 66357
JCSAT-5A                
1 29045U 06010A   24106.62122081 -.00000338  00000+0  00000+0 0  9995
2 29045   0.0165 228.8025 0001259  87.7352 243.3894  1.00272387 65824
ASTRA 1KR               
1 29055U 06012A   24106.10178367  .00000109  00000+0  00000+0 0  9994
2 29055   0.0464  66.0537 0001544 254.9183 298.5885  1.00274532 37762
EWS-G1 (GOES 13)        
1 29155U 06018A   24106.62214274 -.00000294  00000+0  00000+0 0  9992
2 29155   2.4635  85.9704 0087518 253.0766 222.8475  0.99157854 35416
EUTELSAT 113 WEST A     
1 29162U 06020A   24106.55838170 -.00000278  00000+0  00000+0 0  9994
2 29162   0.3036  95.2688 0004953 302.0448 163.0438  0.98938736 65520
GALAXY 16 (G-16)        
1 29236U 06023A   24106.57941341 -.00000137  00000+0  00000+0 0  9990
2 29236   0.0256 245.7103 0002588 137.9942 290.0807  1.00272156 65020
EUTELSAT HOTBIRD 13B    
1 29270U 06032A   24106.60569424  .00000145  00000+0  00000+0 0  9998
2 29270   0.0454  19.6692 0003447   9.8813  65.8687  1.00276563 39366
JCSAT-3A                
1 29272U 06033A   24106.55843028 -.00000355  00000+0  00000+0 0  9994
2 29272   0.0131 199.3963 0002352 202.2487 131.5759  1.00273290 39799
SYRACUSE 3B             
1 29273U 06033B   24106.59803625 -.00000054  00000+0  00000+0 0  9994
2 29273   0.8612  90.1462 0004407 285.1818  38.9795  1.00272762 64752
KOREASAT 5 (MUGUNGWHA 5)
1 29349U 06034A   24106.60295863 -.00000369  00000+0  00000+0 0  9999
2 29349   0.0263 255.5395 0001062 128.3762 150.4418  1.00271997 33377
DIRECTV 9S              
1 29494U 06043A   24106.57897830 -.00000123  00000+0  00000+0 0  9996
2 29494   0.3686  89.4138 0002418 308.1544 273.8680  1.00271899 43431
OPTUS D1                
1 29495U 06043B   24106.55777255 -.00000193  00000+0  00000+0 0  9990
2 29495   0.9836  89.4064 0003728 288.1223 179.4872  1.00272445 64175
BADR-4                  
1 29526U 06051A   24106.60430187  .00000134  00000+0  00000+0 0  9994
2 29526   0.0432 345.4459 0004904  10.1864  92.3773  1.00270779 43322
WILDBLUE-1              
1 29643U 06054A   24106.57697678 -.00000059  00000+0  00000+0 0  9990
2 29643   0.7503  91.0141 0001728 294.8971 274.8216  1.00271383 45841
SKYNET 5A               
1 30794U 07007B   24106.64754231 -.00000281  00000+0  00000+0 0  9992
2 30794   3.2709  83.1905 0003760 309.9602 139.4735  1.00273242 62750
ANIK F3                 
1 31102U 07009A   24106.57541037 -.00000011  00000+0  00000+0 0  9999
2 31102   0.0230 112.3936 0002257 274.9409 265.2973  1.00272438 38619
ASTRA 1L                
1 31306U 07016A   24106.10178367  .00000109  00000+0  00000+0 0  9991
2 31306   0.0547  39.7159 0004574 297.7618 282.0918  1.00272445 37055
GALAXY 17 (G-17)        
1 31307U 07016B   24106.63002532 -.00000216  00000+0  00000+0 0  9990
2 31307   0.9584  90.0415 0002840 300.5262 315.5061  1.00271854 61852
ZHONGXING-6B            
1 31800U 07031A   24106.60295853 -.00000372  00000+0  00000+0 0  9995
2 31800   0.3545  91.9588 0003642 280.6961 164.1389  1.00269151 61484
DIRECTV 10              
1 31862U 07032A   24106.51576973 -.00000113  00000+0  00000+0 0  9992
2 31862   0.0102 132.5858 0000482 142.1798  12.2600  1.00270780 61455
SPACEWAY 3              
1 32018U 07036A   24106.44674125 -.00000236  00000+0  00000+0 0  9996
2 32018   1.9370  86.2613 0002012 351.4040 241.3295  0.99140442 38598
BSAT-3A                 
1 32019U 07036B   24106.59736091 -.00000361  00000+0  00000+0 0  9993
2 32019   0.0524 126.3319 0000855 147.0571 255.7356  1.00271156 42581
OPTUS D2                
1 32252U 07044A   24106.55933896 -.00000121  00000+0  00000+0 0  9993
2 32252   0.0259 112.9906 0003423 265.6348 186.9437  1.00273217 60621
INTELSAT 11 (IS-11)     
1 32253U 07044B   24106.44735042 -.00000278  00000+0  00000+0 0  9998
2 32253   1.5025  88.4694 0003187 302.8553 290.7961  1.00270930 60545
WGS F1 (USA 195)        
1 32258U 07046A   24106.31394477  .00000031  00000+0  00000+0 0  9990
2 32258   0.0128 195.1692 0000429  90.0497  37.7825  1.00270926 44399
SKYNET 5B               
1 32294U 07056B   24106.55882812  .00000132  00000+0  00000+0 0  9994
2 32294   3.2262  82.7652 0004074 302.5627  45.1397  1.00270960 60243
ASTRA 4A (SIRIUS 4)     
1 32299U 07057A   24106.31368370  .00000022  00000+0  00000+0 0  9990
2 32299   0.0538  66.8325 0002798 307.2683 307.5765  1.00272233 43705
HORIZONS-2              
1 32388U 07063B   24106.58446073 -.00000263  00000+0  00000+0 0  9990
2 32388   0.5500  90.0819 0001888 290.0621 320.6862  1.00271030 59867
THURAYA-3               
1 32404U 08001A   24106.64851041 -.00000310  00000+0  00000+0 0  9997
2 32404   4.7716  31.8720 0002124 354.6636 149.7048  1.00271303 59546
THOR 5                  
1 32487U 08006A   24106.59899350 -.00000019  00000+0  00000+0 0  9998
2 32487   0.0144 239.5853 0002663 151.9817  27.5548  1.00273179 59363
AMC-14                  
1 32708U 08011A   24105.95396535  .00000064  00000+0  00000+0 0  9995
2 32708  23.0045  30.0604 0044096 359.5637 174.8165  1.00274242 60202
DIRECTV 11              
1 32729U 08013A   24106.57941341 -.00000136  00000+0  00000+0 0  9991
2 32729   0.0430  58.3273 0000567 111.3436 143.9435  1.00273428 37643
ICO G1                  
1 32763U 08016A   24106.37202063 -.00000180  00000+0  00000+0 0  9990
2 32763   4.8185  34.4964 0002369 347.2056 223.3827  1.00271159 58596
VINASAT-1               
1 32767U 08018A   24105.90943213 -.00000339  00000+0  00000+0 0  9999
2 32767   0.0408  55.5894 0001791 349.3386 257.9683  1.00273125 58632
STAR ONE C2             
1 32768U 08018B   24106.51460935 -.00000287  00000+0  00000+0 0  9995
2 32768   0.0403  38.3204 0002641 353.5371 292.5520  1.00271172 58701
AMOS-3                  
1 32794U 08022A   24106.59829733 -.00000046  00000+0  00000+0 0  9995
2 32794   0.0359 104.8963 0001946 237.5963  72.9983  1.00272200 74384
